[{"OBJECT_NAME":"CBERS 4A","OBJECT_ID":"2019-093E","EPOCH":"2026-03-09T22:45:31.017888","MEAN_MOTION":14.81577142,"ECCENTRICITY":0.00028121,"INCLINATION":97.7589,"RA_OF_ASC_NODE":139.3418,"ARG_OF_PERICENTER":122.1597,"MEAN_ANOMALY":237.989,"EPHEMERIS_TYPE":0,"CLASSIFICATION_TYPE":"U","NORAD_CAT_ID":44883,"ELEMENT_SET_NO":999,"REV_AT_EPOCH":33638,"BSTAR":0.00022932403,"MEAN_MOTION_DOT":1.75e-5,"MEAN_MOTION_DDOT":0},{"OBJECT_NAME":"GEESAT-6 01","OBJECT_ID":"2025-214B","EPOCH":"2026-03-09T22:49:09.909696","MEAN_MOTION":14.83119835,"ECCENTRICITY":0.00123553,"INCLINATION":49.9859,"RA_OF_ASC_NODE":48.2584,"ARG_OF_PERICENTER":212.3001,"MEAN_ANOMALY":147.7181,"EPHEMERIS_TYPE":0,"CLASSIFICATION_TYPE":"U","NORAD_CAT_ID":65713,"ELEMENT_SET_NO":999,"REV_AT_EPOCH":2477,"BSTAR":0.00034422845,"MEAN_MOTION_DOT":2.612e-5,"MEAN_MOTION_DDOT":0}]
